<?xml version="1.0" encoding="UTF-8"?>
<ndm xmlns:xsi="http://www.w3.org/2001/XMLSchema-instance" xsi:noNamespaceSchemaLocation="https://sanaregistry.org/r/ndmxml_unqualified/ndmxml-2.0.0-master-2.0.xsd">
<omm id="CCSDS_OMM_VERS" version="2.0">
<header><CREATION_DATE/><ORIGINATOR/></header><body><segment><metadata><OBJECT_NAME>ORBCOMM FM103</OBJECT_NAME><OBJECT_ID>2014-040F</OBJECT_ID><CENTER_NAME>EARTH</CENTER_NAME><REF_FRAME>TEME</REF_FRAME><TIME_SYSTEM>UTC</TIME_SYSTEM><MEAN_ELEMENT_THEORY>SGP4</MEAN_ELEMENT_THEORY></metadata><data><meanElements><EPOCH>2025-05-16T12:42:59.922144</EPOCH><MEAN_MOTION>14.58125686</MEAN_MOTION><ECCENTRICITY>.0001229</ECCENTRICITY><INCLINATION>47.0039</INCLINATION><RA_OF_ASC_NODE>167.3044</RA_OF_ASC_NODE><ARG_OF_PERICENTER>171.0225</ARG_OF_PERICENTER><MEAN_ANOMALY>189.0683</MEAN_ANOMALY></meanElements><tleParameters><EPHEMERIS_TYPE>0</EPHEMERIS_TYPE><CLASSIFICATION_TYPE>U</CLASSIFICATION_TYPE><NORAD_CAT_ID>40091</NORAD_CAT_ID><ELEMENT_SET_NO>999</ELEMENT_SET_NO><REV_AT_EPOCH>55948</REV_AT_EPOCH><BSTAR>.12037E-3</BSTAR><MEAN_MOTION_DOT>.39E-5</MEAN_MOTION_DOT><MEAN_MOTION_DDOT>0</MEAN_MOTION_DDOT></tleParameters></data></segment></body></omm>
<omm id="CCSDS_OMM_VERS" version="2.0">
<header><CREATION_DATE/><ORIGINATOR/></header><body><segment><metadata><OBJECT_NAME>ORBCOMM FM114</OBJECT_NAME><OBJECT_ID>2015-081A</OBJECT_ID><CENTER_NAME>EARTH</CENTER_NAME><REF_FRAME>TEME</REF_FRAME><TIME_SYSTEM>UTC</TIME_SYSTEM><MEAN_ELEMENT_THEORY>SGP4</MEAN_ELEMENT_THEORY></metadata><data><meanElements><EPOCH>2025-05-16T06:40:43.106016</EPOCH><MEAN_MOTION>14.58167156</MEAN_MOTION><ECCENTRICITY>.0002245</ECCENTRICITY><INCLINATION>47.0029</INCLINATION><RA_OF_ASC_NODE>77.5554</RA_OF_ASC_NODE><ARG_OF_PERICENTER>222.6780</ARG_OF_PERICENTER><MEAN_ANOMALY>137.3932</MEAN_ANOMALY></meanElements><tleParameters><EPHEMERIS_TYPE>0</EPHEMERIS_TYPE><CLASSIFICATION_TYPE>U</CLASSIFICATION_TYPE><NORAD_CAT_ID>41179</NORAD_CAT_ID><ELEMENT_SET_NO>999</ELEMENT_SET_NO><REV_AT_EPOCH>49981</REV_AT_EPOCH><BSTAR>.17701E-3</BSTAR><MEAN_MOTION_DOT>.654E-5</MEAN_MOTION_DOT><MEAN_MOTION_DDOT>0</MEAN_MOTION_DDOT></tleParameters></data></segment></body></omm>
<omm id="CCSDS_OMM_VERS" version="2.0">
<header><CREATION_DATE/><ORIGINATOR/></header><body><segment><metadata><OBJECT_NAME>ORBCOMM FM119</OBJECT_NAME><OBJECT_ID>2015-081B</OBJECT_ID><CENTER_NAME>EARTH</CENTER_NAME><REF_FRAME>TEME</REF_FRAME><TIME_SYSTEM>UTC</TIME_SYSTEM><MEAN_ELEMENT_THEORY>SGP4</MEAN_ELEMENT_THEORY></metadata><data><meanElements><EPOCH>2025-05-15T23:46:39.440928</EPOCH><MEAN_MOTION>14.58099470</MEAN_MOTION><ECCENTRICITY>.0001585</ECCENTRICITY><INCLINATION>47.0020</INCLINATION><RA_OF_ASC_NODE>348.2171</RA_OF_ASC_NODE><ARG_OF_PERICENTER>264.8333</ARG_OF_PERICENTER><MEAN_ANOMALY>95.2371</MEAN_ANOMALY></meanElements><tleParameters><EPHEMERIS_TYPE>0</EPHEMERIS_TYPE><CLASSIFICATION_TYPE>U</CLASSIFICATION_TYPE><NORAD_CAT_ID>41180</NORAD_CAT_ID><ELEMENT_SET_NO>999</ELEMENT_SET_NO><REV_AT_EPOCH>50102</REV_AT_EPOCH><BSTAR>.15396E-3</BSTAR><MEAN_MOTION_DOT>.546E-5</MEAN_MOTION_DOT><MEAN_MOTION_DDOT>0</MEAN_MOTION_DDOT></tleParameters></data></segment></body></omm>
<omm id="CCSDS_OMM_VERS" version="2.0">
<header><CREATION_DATE/><ORIGINATOR/></header><body><segment><metadata><OBJECT_NAME>ORBCOMM FM105</OBJECT_NAME><OBJECT_ID>2015-081C</OBJECT_ID><CENTER_NAME>EARTH</CENTER_NAME><REF_FRAME>TEME</REF_FRAME><TIME_SYSTEM>UTC</TIME_SYSTEM><MEAN_ELEMENT_THEORY>SGP4</MEAN_ELEMENT_THEORY></metadata><data><meanElements><EPOCH>2025-05-16T00:07:20.178624</EPOCH><MEAN_MOTION>14.45197876</MEAN_MOTION><ECCENTRICITY>.0001705</ECCENTRICITY><INCLINATION>47.0030</INCLINATION><RA_OF_ASC_NODE>349.9723</RA_OF_ASC_NODE><ARG_OF_PERICENTER>191.2057</ARG_OF_PERICENTER><MEAN_ANOMALY>168.8786</MEAN_ANOMALY></meanElements><tleParameters><EPHEMERIS_TYPE>0</EPHEMERIS_TYPE><CLASSIFICATION_TYPE>U</CLASSIFICATION_TYPE><NORAD_CAT_ID>41181</NORAD_CAT_ID><ELEMENT_SET_NO>999</ELEMENT_SET_NO><REV_AT_EPOCH>49609</REV_AT_EPOCH><BSTAR>.11199E-3</BSTAR><MEAN_MOTION_DOT>.238E-5</MEAN_MOTION_DOT><MEAN_MOTION_DDOT>0</MEAN_MOTION_DDOT></tleParameters></data></segment></body></omm>
<omm id="CCSDS_OMM_VERS" version="2.0">
<header><CREATION_DATE/><ORIGINATOR/></header><body><segment><metadata><OBJECT_NAME>ORBCOMM FM118</OBJECT_NAME><OBJECT_ID>2015-081E</OBJECT_ID><CENTER_NAME>EARTH</CENTER_NAME><REF_FRAME>TEME</REF_FRAME><TIME_SYSTEM>UTC</TIME_SYSTEM><MEAN_ELEMENT_THEORY>SGP4</MEAN_ELEMENT_THEORY></metadata><data><meanElements><EPOCH>2025-05-16T05:45:23.952384</EPOCH><MEAN_MOTION>14.58457141</MEAN_MOTION><ECCENTRICITY>.0004751</ECCENTRICITY><INCLINATION>47.0040</INCLINATION><RA_OF_ASC_NODE>77.5783</RA_OF_ASC_NODE><ARG_OF_PERICENTER>353.1650</ARG_OF_PERICENTER><MEAN_ANOMALY>6.9170</MEAN_ANOMALY></meanElements><tleParameters><EPHEMERIS_TYPE>0</EPHEMERIS_TYPE><CLASSIFICATION_TYPE>U</CLASSIFICATION_TYPE><NORAD_CAT_ID>41183</NORAD_CAT_ID><ELEMENT_SET_NO>999</ELEMENT_SET_NO><REV_AT_EPOCH>49978</REV_AT_EPOCH><BSTAR>.1786E-3</BSTAR><MEAN_MOTION_DOT>.666E-5</MEAN_MOTION_DOT><MEAN_MOTION_DDOT>0</MEAN_MOTION_DDOT></tleParameters></data></segment></body></omm>
<omm id="CCSDS_OMM_VERS" version="2.0">
<header><CREATION_DATE/><ORIGINATOR/></header><body><segment><metadata><OBJECT_NAME>ORBCOMM FM112</OBJECT_NAME><OBJECT_ID>2015-081F</OBJECT_ID><CENTER_NAME>EARTH</CENTER_NAME><REF_FRAME>TEME</REF_FRAME><TIME_SYSTEM>UTC</TIME_SYSTEM><MEAN_ELEMENT_THEORY>SGP4</MEAN_ELEMENT_THEORY></metadata><data><meanElements><EPOCH>2025-05-15T23:12:45.058752</EPOCH><MEAN_MOTION>14.58123392</MEAN_MOTION><ECCENTRICITY>.0001424</ECCENTRICITY><INCLINATION>47.0005</INCLINATION><RA_OF_ASC_NODE>347.4851</RA_OF_ASC_NODE><ARG_OF_PERICENTER>222.6510</ARG_OF_PERICENTER><MEAN_ANOMALY>137.4265</MEAN_ANOMALY></meanElements><tleParameters><EPHEMERIS_TYPE>0</EPHEMERIS_TYPE><CLASSIFICATION_TYPE>U</CLASSIFICATION_TYPE><NORAD_CAT_ID>41184</NORAD_CAT_ID><ELEMENT_SET_NO>999</ELEMENT_SET_NO><REV_AT_EPOCH>50096</REV_AT_EPOCH><BSTAR>.15865E-3</BSTAR><MEAN_MOTION_DOT>.568E-5</MEAN_MOTION_DOT><MEAN_MOTION_DDOT>0</MEAN_MOTION_DDOT></tleParameters></data></segment></body></omm>
<omm id="CCSDS_OMM_VERS" version="2.0">
<header><CREATION_DATE/><ORIGINATOR/></header><body><segment><metadata><OBJECT_NAME>ORBCOMM FM113</OBJECT_NAME><OBJECT_ID>2015-081G</OBJECT_ID><CENTER_NAME>EARTH</CENTER_NAME><REF_FRAME>TEME</REF_FRAME><TIME_SYSTEM>UTC</TIME_SYSTEM><MEAN_ELEMENT_THEORY>SGP4</MEAN_ELEMENT_THEORY></metadata><data><meanElements><EPOCH>2025-05-15T21:00:42.612480</EPOCH><MEAN_MOTION>14.58121034</MEAN_MOTION><ECCENTRICITY>.0001458</ECCENTRICITY><INCLINATION>47.0023</INCLINATION><RA_OF_ASC_NODE>348.2381</RA_OF_ASC_NODE><ARG_OF_PERICENTER>239.3045</ARG_OF_PERICENTER><MEAN_ANOMALY>120.7697</MEAN_ANOMALY></meanElements><tleParameters><EPHEMERIS_TYPE>0</EPHEMERIS_TYPE><CLASSIFICATION_TYPE>U</CLASSIFICATION_TYPE><NORAD_CAT_ID>41185</NORAD_CAT_ID><ELEMENT_SET_NO>999</ELEMENT_SET_NO><REV_AT_EPOCH>50093</REV_AT_EPOCH><BSTAR>.20457E-3</BSTAR><MEAN_MOTION_DOT>.782E-5</MEAN_MOTION_DOT><MEAN_MOTION_DDOT>0</MEAN_MOTION_DDOT></tleParameters></data></segment></body></omm>

</ndm>
