ORBCOMM FM103           
1 40091U 14040F   25136.52986021  .00000390  00000+0  12037-3 0  9990
2 40091  47.0039 167.3044 0001229 171.0225 189.0683 14.58125686559488
ORBCOMM FM114           
1 41179U 15081A   25136.27827669  .00000654  00000+0  17701-3 0  9994
2 41179  47.0029  77.5554 0002245 222.6780 137.3932 14.58167156499812
ORBCOMM FM119           
1 41180U 15081B   25135.99073427  .00000546  00000+0  15396-3 0  9997
2 41180  47.0020 348.2171 0001585 264.8333  95.2371 14.58099470501025
ORBCOMM FM105           
1 41181U 15081C   25136.00509466  .00000238  00000+0  11199-3 0  9993
2 41181  47.0030 349.9723 0001705 191.2057 168.8786 14.45197876496090
ORBCOMM FM118           
1 41183U 15081E   25136.23986056  .00000666  00000+0  17860-3 0  9990
2 41183  47.0040  77.5783 0004751 353.1650   6.9170 14.58457141499781
ORBCOMM FM112           
1 41184U 15081F   25135.96718818  .00000568  00000+0  15865-3 0  9993
2 41184  47.0005 347.4851 0001424 222.6510 137.4265 14.58123392500963
ORBCOMM FM113           
1 41185U 15081G   25135.87549320  .00000782  00000+0  20457-3 0  9995
2 41185  47.0023 348.2381 0001458 239.3045 120.7697 14.58121034500938
